NORAD_CAT_ID,OBJECT_NAME,OBJECT_TYPE,EPOCH,MEAN_MOTION,ECCENTRICITY,INCLINATION,RA_OF_ASC_NODE,ARG_OF_PERICENTER,MEAN_ANOMALY,BSTAR,MEAN_MOTION_DOT,MEAN_MOTION_DDOT,TLE_LINE0,TLE_LINE1,TLE_LINE2,SEMIMAJOR_AXIS,PERIOD,APOGEE,PERIGEE,DECAYED
55281.0,STARLINK-5298,PAYLOAD,2024-02-11 14:43:13,14.98334925,0.0002737,70.0011,153.2983,258.2058,101.8794,0.00011123,1.235e-05,0.0,0 STARLINK-5298,1 55281U 23010N   24042.61335409  .00001235  00000-0  11123-3 0  9992,2 55281  70.0011 153.2983 0002737 258.2058 101.8794 14.98334925 59374,6950.178,96.107,573.945,570.14,0.0
55281.0,STARLINK-5298,PAYLOAD,2024-02-11 16:19:21,14.98336429,0.0002492,70.0017,153.1303,249.1888,110.9004,0.00014225,1.605e-05,0.0,0 STARLINK-5298,1 55281U 23010N   24042.68011213  .00001605  00000-0  14225-3 0  9990,2 55281  70.0017 153.1303 0002492 249.1888 110.9004 14.98336429 59087,6950.173,96.107,573.77,570.306,0.0
55281.0,STARLINK-5298,PAYLOAD,2024-02-12 09:56:50,14.98332364,0.000284,70.0016,151.2791,265.94,94.1435,4.0957e-05,3.96e-06,0.0,0 STARLINK-5298,1 55281U 23010N   24043.41447601  .00000396  00000-0  40957-4 0  9994,2 55281  70.0016 151.2791 0002840 265.9400  94.1435 14.98332364 59196,6950.186,96.107,574.024,570.077,0.0
55281.0,STARLINK-5298,PAYLOAD,2024-02-12 14:45:15,14.98329373,0.0002797,70.0011,150.774,262.9536,97.1305,4.4377e-05,4.37e-06,0.0,0 STARLINK-5298,1 55281U 23010N   24043.61475749  .00000437  00000-0  44377-4 0  9996,2 55281  70.0011 150.7740 0002797 262.9536  97.1305 14.98329373 59529,6950.195,96.107,574.004,570.116,0.0
55281.0,STARLINK-5298,PAYLOAD,2024-02-12 16:21:22,14.98331866,0.0002754,70.0011,150.6056,261.2583,98.8264,5.3551e-05,5.46e-06,0.0,0 STARLINK-5298,1 55281U 23010N   24043.68151550  .00000546  00000-0  53551-4 0  9999,2 55281  70.0011 150.6056 0002754 261.2583  98.8264 14.98331866 59538,6950.187,96.107,573.966,570.138,0.0
55281.0,STARLINK-5298,PAYLOAD,2024-02-13 09:58:52,14.98327727,0.0002444,70.002,148.7557,250.9325,109.157,-4.3848e-05,-6.16e-06,0.0,0 STARLINK-5298,1 55281U 23010N   24044.41588052 -.00000616  00000-0 -43848-4 0  9990,2 55281  70.0020 148.7557 0002444 250.9325 109.1570 14.98327727 59343,6950.2,96.107,573.764,570.366,0.0
55281.0,STARLINK-5298,PAYLOAD,2024-02-13 14:47:16,14.9832775,0.0002817,70.0004,148.248,268.6283,91.4554,-7.4521e-05,-9.82e-06,0.0,0 STARLINK-5298,1 55281U 23010N   24044.61616269 -.00000982  00000-0 -74521-4 0  9992,2 55281  70.0004 148.2480 0002817 268.6283  91.4554 14.98327750 59675,6950.2,96.107,574.023,570.107,0.0
55281.0,STARLINK-5298,PAYLOAD,2024-02-13 16:23:24,14.98330165,0.0002865,70.0006,148.08,269.8224,90.2607,-4.2155e-05,-5.96e-06,0.0,0 STARLINK-5298,1 55281U 23010N   24044.68292046 -.00000596  00000-0 -42155-4 0  9991,2 55281  70.0006 148.0800 0002865 269.8224  90.2607 14.98330165 59683,6950.192,96.107,574.049,570.066,0.0
55281.0,STARLINK-5298,PAYLOAD,2024-02-14 11:37:00,14.98332047,0.0002785,70.0006,146.0602,264.2081,95.8761,8.1902e-05,8.84e-06,0.0,0 STARLINK-5298,1 55281U 23010N   24045.48403522  .00000884  00000-0  81902-4 0  9994,2 55281  70.0006 146.0602 0002785 264.2081  95.8761 14.98332047 59506,6950.187,96.107,573.987,570.116,0.0
55281.0,STARLINK-5298,PAYLOAD,2024-02-14 14:49:16,14.98338558,0.0002869,70.0005,145.7231,267.1701,92.9129,0.00013223,1.485e-05,0.0,0 STARLINK-5298,1 55281U 23010N   24045.61754954  .00001485  00000-0  13223-3 0  9995,2 55281  70.0005 145.7231 0002869 267.1701  92.9129 14.98338558 59827,6950.166,96.106,574.025,570.037,0.0
55281.0,STARLINK-5298,PAYLOAD,2024-02-14 16:25:24,14.98341074,0.0002901,70.0004,145.555,267.7535,92.3292,0.00015743,1.786e-05,0.0,0 STARLINK-5298,1 55281U 23010N   24045.68430691  .00001786  00000-0  15743-3 0  9994,2 55281  70.0004 145.5550 0002901 267.7535  92.3292 14.98341074 59536,6950.159,96.106,574.04,570.007,0.0
55281.0,STARLINK-5298,PAYLOAD,2024-02-15 11:39:02,14.98322232,0.0002865,70.0007,143.5356,269.0725,91.0106,2.5708e-05,2.14e-06,0.0,0 STARLINK-5298,1 55281U 23010N   24046.48544408  .00000214  00000-0  25708-4 0  9993,2 55281  70.0007 143.5356 0002865 269.0725  91.0106 14.98322232 59654,6950.217,96.107,574.073,570.091,0.0
55281.0,STARLINK-5298,PAYLOAD,2024-02-15 14:51:18,14.98321971,0.0002808,70.0006,143.1986,264.9612,95.1227,6.0946e-05,6.34e-06,0.0,0 STARLINK-5298,1 55281U 23010N   24046.61896369  .00000634  00000-0  60946-4 0  9993,2 55281  70.0006 143.1986 0002808 264.9612  95.1227 14.98321971 59977,6950.218,96.108,574.034,570.131,0.0
55281.0,STARLINK-5298,PAYLOAD,2024-02-15 16:27:26,14.98325039,0.000286,70.0005,143.0301,266.8917,93.1915,6.0526e-05,6.29e-06,0.0,0 STARLINK-5298,1 55281U 23010N   24046.68572220  .00000629  00000-0  60526-4 0  9995,2 55281  70.0005 143.0301 0002860 266.8917  93.1915 14.98325039 59985,6950.208,96.107,574.061,570.085,0.0
55281.0,STARLINK-5298,PAYLOAD,2024-02-16 11:41:02,14.98335148,0.0002935,70.0008,141.0114,268.523,91.5593,6.3807e-05,6.69e-06,0.0,0 STARLINK-5298,1 55281U 23010N   24047.48683565  .00000669  00000-0  63807-4 0  9998,2 55281  70.0008 141.0114 0002935 268.5230  91.5593 14.98335148 59805,6950.177,96.107,574.082,570.002,0.0
55281.0,STARLINK-5298,PAYLOAD,2024-02-16 13:17:09,14.98357286,0.0002536,70.0006,140.8434,256.1546,103.9331,-0.00024893,-3.064e-05,0.0,0 STARLINK-5298,1 55281U 23010N   24047.55358776 -.00003064  00000-0 -24893-3 0  9994,2 55281  70.0006 140.8434 0002536 256.1546 103.9331 14.98357286 60116,6950.109,96.105,573.736,570.211,0.0
55281.0,STARLINK-5298,PAYLOAD,2024-02-16 16:29:25,14.98355963,0.0002496,70.0006,140.5065,257.3942,102.6938,-0.00019835,-2.46e-05,0.0,0 STARLINK-5298,1 55281U 23010N   24047.68710574 -.00002460  00000-0 -19835-3 0  9995,2 55281  70.0006 140.5065 0002496 257.3942 102.6938 14.98355963 59837,6950.113,96.105,573.712,570.243,0.0
55281.0,STARLINK-5298,PAYLOAD,2024-02-17 10:06:56,14.98320454,0.0002968,70.0004,138.655,270.1244,89.9575,4.2209e-05,4.11e-06,0.0,0 STARLINK-5298,1 55281U 23010N   24048.42148691  .00000411  00000-0  42209-4 0  9997,2 55281  70.0004 138.6550 0002968 270.1244  89.9575 14.98320454 59947,6950.222,96.108,574.15,570.025,0.0
55281.0,STARLINK-5298,PAYLOAD,2024-02-17 13:19:12,14.98322511,0.0002835,70.0002,138.3184,267.0266,93.0569,3.348e-05,3.06e-06,0.0,0 STARLINK-5298,1 55281U 23010N   24048.55500615  .00000306  00000-0  33480-4 0  9993,2 55281  70.0002 138.3184 0002835 267.0266  93.0569 14.98322511 60269,6950.216,96.107,574.051,570.111,0.0
55281.0,STARLINK-5298,PAYLOAD,2024-02-17 16:31:28,14.98325221,0.0002969,70.0004,137.982,270.6755,89.4064,8.2923e-05,8.96e-06,0.0,0 STARLINK-5298,1 55281U 23010N   24048.68852381  .00000896  00000-0  82923-4 0  9997,2 55281  70.0004 137.9820 0002969 270.6755  89.4064 14.98325221 60286,6950.208,96.107,574.136,570.009,0.0
55281.0,STARLINK-5298,PAYLOAD,2024-02-17 22:55:59,14.98344519,0.0003108,70.0001,137.3084,269.393,90.6873,-0.00019352,-2.402e-05,0.0,0 STARLINK-5298,1 55281U 23010N   24048.95555542 -.00002402  00000-0 -19352-3 0  9998,2 55281  70.0001 137.3084 0003108 269.3930  90.6873 14.98344519 60020,6950.148,96.106,574.173,569.853,0.0
55281.0,STARLINK-5298,PAYLOAD,2024-02-18 14:57:20,14.98342649,0.0002865,70.0003,135.6252,267.9908,92.0923,0.00017173,1.957e-05,0.0,0 STARLINK-5298,1 55281U 23010N   24049.62315034  .00001957  00000-0  17173-3 0  9994,2 55281  70.0003 135.6252 0002865 267.9908  92.0923 14.98342649 60426,6950.154,96.106,574.01,570.028,0.0
55281.0,STARLINK-5298,PAYLOAD,2024-02-18 16:33:28,14.98344889,0.0002837,70.0003,135.4567,267.0549,93.0285,0.00020145,2.312e-05,0.0,0 STARLINK-5298,1 55281U 23010N   24049.68990836  .00002312  00000-0  20145-3 0  9998,2 55281  70.0003 135.4567 0002837 267.0549  93.0285 14.98344889 60435,6950.147,96.106,573.984,570.04,0.0
55281.0,STARLINK-5298,PAYLOAD,2024-02-18 22:57:58,14.98407897,0.0002734,70.0023,134.7815,289.7265,70.3599,-0.0014269,-0.00017111,0.0,0 STARLINK-5298,1 55281U 23010N   24049.95692565 -.00017111  00000-0 -14269-2 0  9990,2 55281  70.0023 134.7815 0002734 289.7265  70.3599 14.98407897 60173,6949.952,96.102,573.717,569.917,0.0
55281.0,STARLINK-5298,PAYLOAD,2024-02-19 11:47:06,14.98321182,0.0002671,70.0001,133.4366,271.5161,88.5692,7.0597e-05,7.49e-06,0.0,0 STARLINK-5298,1 55281U 23010N   24050.49104755  .00000749  00000-0  70597-4 0  9995,2 55281  70.0001 133.4366 0002671 271.5161  88.5692 14.98321182 60256,6950.22,96.108,573.942,570.229,0.0
55281.0,STARLINK-5298,PAYLOAD,2024-02-19 13:23:14,14.98319615,0.0002735,70.0002,133.2681,270.3787,89.7059,4.5921e-05,4.55e-06,0.0,0 STARLINK-5298,1 55281U 23010N   24050.55780875  .00000455  00000-0  45921-4 0  9992,2 55281  70.0002 133.2681 0002735 270.3787  89.7059 14.98319615 60569,6950.225,96.108,573.991,570.189,0.0
55281.0,STARLINK-5298,PAYLOAD,2024-02-19 23:00:02,14.98326826,0.0002894,70.0002,132.2581,271.6196,88.4631,2.5418e-05,2.1e-06,0.0,0 STARLINK-5298,1 55281U 23010N   24050.95836487  .00000210  00000-0  25418-4 0  9995,2 55281  70.0002 132.2581 0002894 271.6196  88.4631 14.98326826 60622,6950.203,96.107,574.079,570.056,0.0
55281.0,STARLINK-5298,PAYLOAD,2024-02-20 11:49:06,14.98335669,0.0002868,69.9998,130.9119,271.7167,88.3664,2.4975e-05,2.05e-06,0.0,0 STARLINK-5298,1 55281U 23010N   24051.49243937  .00000205  00000-0  24975-4 0  9998,2 55281  69.9998 130.9119 0002868 271.7167  88.3664 14.98335669 60401,6950.175,96.107,574.034,570.047,0.0
55281.0,STARLINK-5298,PAYLOAD,2024-02-20 13:25:14,14.9833712,0.0002745,70.0,130.7432,268.5439,91.5405,7.7779e-05,8.35e-06,0.0,0 STARLINK-5298,1 55281U 23010N   24051.55919685  .00000835  00000-0  77779-4 0  9994,2 55281  70.0000 130.7432 0002745 268.5439  91.5405 14.98337120 60711,6950.171,96.107,573.944,570.128,0.0
55281.0,STARLINK-5298,PAYLOAD,2024-02-20 15:01:22,14.98338431,0.0002737,70.0001,130.5749,268.5317,91.5529,8.8313e-05,9.61e-06,0.0,0 STARLINK-5298,1 55281U 23010N   24051.62595544  .00000961  00000-0  88313-4 0  9992,2 55281  70.0001 130.5749 0002737 268.5317  91.5529 14.98338431 60721,6950.167,96.106,573.934,570.13,0.0
